FENGYUN 1C DEB          
1 30660U 99025APS 25109.24316199  .00008599  00000+0  86405-3 0  9998
2 30660  98.1383 200.3795 0147150  27.1470 355.7930 14.83715568972596
FENGYUN 1C DEB          
1 30661U 99025APT 25109.40575671  .00000412  00000+0  19258-3 0  9997
2 30661  99.4693 267.7593 0144290 354.7787   5.1876 14.20941031945312
FENGYUN 1C DEB          
1 30662U 99025APU 25110.11717078  .00003956  00000+0  18423-2 0  9995
2 30662  99.0652 160.2107 0033882 225.2957 191.7450 14.20793813932978
FENGYUN 1C DEB          
1 30663U 99025APV 25108.77905828  .00005806  00000+0  45391-2 0  9997
2 30663  99.2982  50.2370 0656502 352.2278   6.9048 13.21073717859033
FENGYUN 1C DEB          
1 30665U 99025APX 25109.89719446  .00004281  00000+0  23630-2 0  9990
2 30665  99.1942  75.6324 0071454 143.6387 234.2663 14.10712194926706
FENGYUN 1C DEB          
1 30666U 99025APY 25109.91080469  .00001147  00000+0  76260-3 0  9996
2 30666  98.8036 101.2586 0061986  85.7930 304.6421 14.02270878927919
FENGYUN 1C DEB          
1 30668U 99025AQA 25109.70160728  .00004657  00000+0  25467-2 0  9993
2 30668  99.1372 178.5319 0082861 190.2352 325.7872 14.10722292927111
FENGYUN 1C DEB          
1 30669U 99025AQB 25110.35881970  .00003614  00000+0  22720-2 0  9997
2 30669  98.6246  59.6275 0122332 118.9276  12.2857 14.01313005921513
FENGYUN 1C DEB          
1 30670U 99025AQC 25110.41482887  .00000330  00000+0  18897-3 0  9993
2 30670  98.7397 159.7048 0039401  26.2894  99.9177 14.15714117938232
FENGYUN 1C DEB          
1 30671U 99025AQD 25110.11016715  .00002384  00000+0  17059-2 0  9993
2 30671  99.2645 173.9187 0125702 316.0137 105.8970 13.94475397919155
FENGYUN 1C DEB          
1 30673U 99025AQF 25110.44211683  .00000433  00000+0  30100-3 0  9998
2 30673  98.9479 163.7758 0052993  81.7286  48.4761 14.03314532933050
FENGYUN 1C DEB          
1 30674U 99025AQG 25110.31863572  .00058566  00000+0  98333-2 0  9996
2 30674  98.9585 246.5726 0029952 321.2715  38.6341 14.69072972938895
FENGYUN 1C DEB          
1 30675U 99025AQH 25110.15188399  .00005126  00000+0  21523-2 0  9997
2 30675  98.7599 189.2242 0056145 136.4466 280.7803 14.25454775935525
FENGYUN 1C DEB          
1 30676U 99025AQJ 25109.83461088  .00002265  00000+0  11046-2 0  9990
2 30676  98.2873 326.6886 0475789 330.4346  27.0655 13.72842057906721
FENGYUN 1C DEB          
1 30677U 99025AQK 25109.63351867  .00005463  00000+0  18378-2 0  9990
2 30677  98.2696 164.0551 0068696 194.4496 317.5872 14.36144399945745
FENGYUN 1C DEB          
1 30678U 99025AQL 25109.41345231  .00007753  00000+0  35301-2 0  9994
2 30678  99.0778  63.2619 0074992 186.5513 300.7110 14.20464475925020
FENGYUN 1C DEB          
1 30679U 99025AQM 25109.89545844  .00000844  00000+0  77713-3 0  9997
2 30679  99.4020 163.4498 0170550 343.6417  71.4110 13.79336532912549
FENGYUN 1C DEB          
1 30680U 99025AQN 25109.83798457  .00003334  00000+0  35155-2 0  9993
2 30680  99.6036 158.1719 0329564  43.6920 318.9807 13.54141137890459
FENGYUN 1C DEB          
1 30683U 99025AQR 25108.57806737  .00002455  00000+0  15745-2 0  9993
2 30683  99.4290 112.8068 0145730 153.9211 331.5921 13.99175696922196
FENGYUN 1C DEB          
1 30684U 99025AQS 25108.59574215  .00001283  00000+0  13211-2 0  9993
2 30684  99.5407 153.3311 0237328 162.0627 198.9074 13.66341436903763
FENGYUN 1C DEB          
1 30686U 99025AQU 25110.44523912  .00014810  00000+0  20415-2 0  9994
2 30686  99.0327 278.1646 0152588 134.4091 282.1134 14.70531208961749
FENGYUN 1C DEB          
1 30688U 99025AQW 25110.18548128  .00006431  00000+0  24844-2 0  9993
2 30688  98.7089 182.9485 0014674 287.1472 128.7102 14.30426971939311
FENGYUN 1C DEB          
1 30689U 99025AQX 25110.47975876  .00001510  00000+0  80912-3 0  9992
2 30689  98.6912 103.8813 0112639  55.4615  69.4023 14.11314306935932
FENGYUN 1C DEB          
1 30690U 99025AQY 25108.74716284  .00004313  00000+0  27538-2 0  9995
2 30690  99.1486  38.3156 0107539  12.4647  49.3021 14.01238737923731
FENGYUN 1C DEB          
1 30691U 99025AQZ 25110.01033623  .00002013  00000+0  15719-2 0  9991
2 30691  98.7542 135.7342 0141925 159.9842 231.1345 13.88664611918776
FENGYUN 1C DEB          
1 30693U 99025ARB 25110.47372392  .00000929  00000+0  51896-3 0  9993
2 30693  98.6685 102.8185 0030522 121.2509 239.1660 14.12943701936100
FENGYUN 1C DEB          
1 30694U 99025ARC 25110.49829619  .00019843  00000+0  21325-2 0  9993
2 30694  99.0209  45.9244 0142568 321.5915  37.5210 14.81361974966477
FENGYUN 1C DEB          
1 30696U 99025ARE 25109.94863749  .00004634  00000+0  13215-2 0  9996
2 30696  98.4094 161.9353 0093104 121.4002   2.6211 14.43148295948874
FENGYUN 1C DEB          
1 30697U 99025ARF 25110.15577968  .00003995  00000+0  21161-2 0  9995
2 30697  98.9179 168.0792 0091371 135.2490 291.7615 14.12110813929203
FENGYUN 1C DEB          
1 30699U 99025ARH 25109.51031905  .00010523  00000+0  31674-2 0  9996
2 30699  99.3007 206.6365 0004507 213.0184 147.0722 14.42775520941880
FENGYUN 1C DEB          
1 30700U 99025ARJ 25109.02526662  .00000697  00000+0  31187-3 0  9995
2 30700  98.5649 143.7904 0087938 115.6904 245.3388 14.23535598941879
FENGYUN 1C DEB          
1 30701U 99025ARK 25110.08793113 -.00000029  00000+0  71539-5 0  9998
2 30701  98.7481 156.7457 0035579  58.5638 356.7992 14.13918101937817
FENGYUN 1C DEB          
1 30702U 99025ARL 25109.80016251  .00002085  00000+0  13422-2 0  9995
2 30702  98.7843 137.9122 0069479 243.6803 172.9203 14.02976601928390
FENGYUN 1C DEB          
1 30703U 99025ARM 25109.38609850  .00003407  00000+0  15764-2 0  9992
2 30703  99.1255  87.4416 0118074 244.7632 273.7456 14.17920962931755
FENGYUN 1C DEB          
1 30704U 99025ARN 25109.51064280  .00000499  00000+0  34569-3 0  9993
2 30704  98.8686 114.6804 0083195  41.0734  89.5362 14.01839415927872
FENGYUN 1C DEB          
1 30705U 99025ARP 25110.57745539  .00003248  00000+0  27244-2 0  9991
2 30705 102.1837 147.2074 0203447 123.3612  31.8653 13.80103200907912
FENGYUN 1C DEB          
1 30706U 99025ARQ 25110.16351399  .00002978  00000+0  12776-2 0  9997
2 30706  99.0865 356.4756 0028378  89.5623 270.8807 14.25372620939074
FENGYUN 1C DEB          
1 30707U 99025ARR 25109.34955888  .00004774  00000+0  20562-2 0  9997
2 30707  99.4243 146.1766 0028091  27.9299 100.3146 14.24878206934204
FENGYUN 1C DEB          
1 30708U 99025ARS 25110.52532522  .00000408  00000+0  24587-3 0  9998
2 30708  98.7020 131.2110 0009042 146.1866   6.9490 14.12019974935016
FENGYUN 1C DEB          
1 30709U 99025ART 25109.88097359  .00005297  00000+0  26674-2 0  9999
2 30709  99.1339  81.7960 0083902 217.9174 141.6071 14.14990414926441
FENGYUN 1C DEB          
1 30710U 99025ARU 25106.69682438  .00005700  00000+0  36322-2 0  9995
2 30710 102.7496 266.0875 0227761 289.4717  88.6459 13.92334766914467
FENGYUN 1C DEB          
1 30714U 99025ARY 25107.65511976  .00000843  00000+0  56141-3 0  9999
2 30714  98.8567 162.8199 0069698 226.2033 265.5038 14.02727725926409
FENGYUN 1C DEB          
1 30715U 99025ARZ 25110.40213536  .00005193  00000+0  27392-2 0  9996
2 30715  98.9867 178.4332 0069924 117.3127 243.5187 14.13071247928419
FENGYUN 1C DEB          
1 30716U 99025ASA 25110.41623478  .00038699  00000+0  69612-2 0  9996
2 30716  98.8696 272.2553 0028308 108.4491 304.9816 14.66199897943758
FENGYUN 1C DEB          
1 30717U 99025ASB 25110.11775944  .00004381  00000+0  20945-2 0  9997
2 30717  99.0276 176.3661 0049656 211.5354 148.2843 14.19000776931787
FENGYUN 1C DEB          
1 30718U 99025ASC 25109.92750518  .00005782  00000+0  25652-2 0  9991
2 30718  98.8954 187.8244 0060445 119.8368 240.8836 14.22437767934058
FENGYUN 1C DEB          
1 30719U 99025ASD 25110.28087344  .00025469  00000+0  63886-2 0  9998
2 30719  98.8811 237.3143 0014598 181.2010 178.9151 14.51226616940650
FENGYUN 1C DEB          
1 30720U 99025ASE 25109.93747588  .00003416  00000+0  13836-2 0  9991
2 30720  99.0234 275.1206 0031609 294.3889 219.4568 14.28173207941077
FENGYUN 1C DEB          
1 30721U 99025ASF 25109.99194266  .00022343  00000+0  44095-2 0  9998
2 30721  98.6986 227.0491 0030675 358.7972  60.6198 14.62142185944144
FENGYUN 1C DEB          
1 30723U 99025ASH 25110.47709404  .00009514  00000+0  31644-2 0  9992
2 30723  98.8469 188.9969 0015836 235.2745 247.4025 14.37811559939865
FENGYUN 1C DEB          
1 30724U 99025ASJ 25109.41340176  .00002267  00000+0  75386-3 0  9992
2 30724  99.3072 274.7929 0094217 229.2938 159.8225 14.36326165950458
FENGYUN 1C DEB          
1 30725U 99025ASK 25110.18330965  .00003821  00000+0  19383-2 0  9995
2 30725  99.0176 176.4486 0087706 340.8519  82.5172 14.14619426930011
FENGYUN 1C DEB          
1 30726U 99025ASL 25110.51513962  .00002832  00000+0  16368-2 0  9994
2 30726  99.2617 105.7853 0079277 162.0403 323.8501 14.08248153927276
FENGYUN 1C DEB          
1 30728U 99025ASN 25109.84792901  .00000308  00000+0  14677-3 0  9990
2 30728  98.5340 123.6522 0099491  52.3335 308.6817 14.23365906943193
FENGYUN 1C DEB          
1 30730U 99025ASQ 25110.10103091  .00003292  00000+0  13993-2 0  9994
2 30730  98.6355 153.2364 0079195  18.8597  35.9675 14.24238425936473
FENGYUN 1C DEB          
1 30731U 99025ASR 25110.46719252  .00008592  00000+0  28308-2 0  9990
2 30731  98.8658 181.7122 0015244 221.0629 261.1979 14.38318306939654
FENGYUN 1C DEB          
1 30732U 99025ASS 25110.28932118  .00000637  00000+0  40348-3 0  9990
2 30732  98.8218 137.5224 0125429 150.1205 343.2653 14.03575829928946
FENGYUN 1C DEB          
1 30735U 99025ASV 25110.19580902  .00005795  00000+0  25822-2 0  9992
2 30735  98.7731 182.1854 0061664 207.3658 217.4944 14.22166304933979
FENGYUN 1C DEB          
1 30736U 99025ASW 25106.62622810  .00001925  00000+0  20115-2 0  9992
2 30736  98.7948 168.2405 0278815 320.1194 197.9394 13.60725686896158
FENGYUN 1C DEB          
1 30737U 99025ASX 25109.94469322  .00001029  00000+0  52226-3 0  9992
2 30737  98.5594 100.4827 0025016  95.6458 293.2856 14.17889054937196
